[{"OBJECT_NAME":"ONEWEB-0369","OBJECT_ID":"2021-090S","EPOCH":"2026-03-09T17:02:52.729728","MEAN_MOTION":13.19725428,"ECCENTRICITY":0.00016421,"INCLINATION":87.9229,"RA_OF_ASC_NODE":324.7972,"ARG_OF_PERICENTER":82.7841,"MEAN_ANOMALY":277.3479,"EPHEMERIS_TYPE":0,"CLASSIFICATION_TYPE":"U","NORAD_CAT_ID":49295,"ELEMENT_SET_NO":999,"REV_AT_EPOCH":21329,"BSTAR":-0.00030046304,"MEAN_MOTION_DOT":-1.07e-6,"MEAN_MOTION_DDOT":0},{"OBJECT_NAME":"FENGYUN 1C DEB","OBJECT_ID":"1999-025CQC","EPOCH":"2026-02-26T23:26:35.389536","MEAN_MOTION":13.69263218,"ECCENTRICITY":0.0295769,"INCLINATION":99.2669,"RA_OF_ASC_NODE":115.0798,"ARG_OF_PERICENTER":295.9025,"MEAN_ANOMALY":61.191,"EPHEMERIS_TYPE":0,"CLASSIFICATION_TYPE":"U","NORAD_CAT_ID":32086,"ELEMENT_SET_NO":999,"REV_AT_EPOCH":62824,"BSTAR":0.0018965221,"MEAN_MOTION_DOT":2.192e-5,"MEAN_MOTION_DDOT":0}]
